{
  "type": "FeatureCollection",
  "features": [
    {
      "type": "Feature",
      "properties": {
        "norad_id": 43359,
        "name": "FENGYUN 1C DEB",
        "group": "fengyun-1c-debris",
        "lat": 42.81651916669589,
        "lon": 66.19003598611485,
        "alt_km": 777.7726222112888,
        "timestamp": "2025-12-20T11:30:28.667629+00:00",
        "meta_object_name": "FENGYUN 1C DEB",
        "meta_object_id": "1999-025EYQ",
        "meta_epoch": "2025-12-20T04:33:28.300032",
        "meta_mean_motion": 14.2322175,
        "meta_eccentricity": 0.007339,
        "meta_inclination": 99.0537,
        "meta_ra_of_asc_node": 74.388,
        "meta_arg_of_pericenter": 352.9112,
        "meta_mean_anomaly": 7.1021,
        "meta_ephemeris_type": 0,
        "meta_classification_type": "U",
        "meta_norad_cat_id": 43359,
        "meta_element_set_no": 999,
        "meta_rev_at_epoch": 47855,
        "meta_bstar": 0.0013276,
        "meta_mean_motion_dot": 3.041e-05,
        "meta_mean_motion_ddot": 0,
        "tle_line1": "1 43359U 99025EYQ 25354.18991088  .00003041  00000+0  13276-2 0  9990",
        "tle_line2": "2 43359  99.0537  74.3880 0073390 352.9112   7.1021 14.23221750478551"
      },
      "geometry": {
        "type": "Point",
        "coordinates": [
          66.19003598611485,
          42.81651916669589
        ]
      }
    },
    {
      "type": "Feature",
      "properties": {
        "norad_id": 45526,
        "name": "FENGYUN 1C DEB",
        "group": "fengyun-1c-debris",
        "lat": -51.062902204559684,
        "lon": -124.37209426099267,
        "alt_km": 778.341395385396,
        "timestamp": "2025-12-20T11:30:28.667639+00:00",
        "meta_object_name": "FENGYUN 1C DEB",
        "meta_object_id": "1999-025EYR",
        "meta_epoch": "2025-12-20T03:41:18.828960",
        "meta_mean_motion": 14.25995615,
        "meta_eccentricity": 0.0054734,
        "meta_inclination": 98.7634,
        "meta_ra_of_asc_node": 66.3083,
        "meta_arg_of_pericenter": 201.5647,
        "meta_mean_anomaly": 158.3227,
        "meta_ephemeris_type": 0,
        "meta_classification_type": "U",
        "meta_norad_cat_id": 45526,
        "meta_element_set_no": 999,
        "meta_rev_at_epoch": 43482,
        "meta_bstar": 0.0011954,
        "meta_mean_motion_dot": 2.854e-05,
        "meta_mean_motion_ddot": 0,
        "tle_line1": "1 45526U 99025EYR 25354.15369015  .00002854  00000+0  11954-2 0  9996",
        "tle_line2": "2 45526  98.7634  66.3083 0054734 201.5647 158.3227 14.25995615434821"
      },
      "geometry": {
        "type": "Point",
        "coordinates": [
          -124.37209426099267,
          -51.062902204559684
        ]
      }
    },
    {
      "type": "Feature",
      "properties": {
        "norad_id": 45527,
        "name": "FENGYUN 1C DEB",
        "group": "fengyun-1c-debris",
        "lat": -17.805009504912114,
        "lon": -121.77012256033275,
        "alt_km": 775.1179268940969,
        "timestamp": "2025-12-20T11:30:28.667648+00:00",
        "meta_object_name": "FENGYUN 1C DEB",
        "meta_object_id": "1999-025EYS",
        "meta_epoch": "2025-12-19T22:46:49.486368",
        "meta_mean_motion": 14.24551916,
        "meta_eccentricity": 0.005563,
        "meta_inclination": 98.7394,
        "meta_ra_of_asc_node": 60.534,
        "meta_arg_of_pericenter": 205.2105,
        "meta_mean_anomaly": 154.6356,
        "meta_ephemeris_type": 0,
        "meta_classification_type": "U",
        "meta_norad_cat_id": 45527,
        "meta_element_set_no": 999,
        "meta_rev_at_epoch": 39682,
        "meta_bstar": 0.0010777,
        "meta_mean_motion_dot": 2.497e-05,
        "meta_mean_motion_ddot": 0,
        "tle_line1": "1 45527U 99025EYS 25353.94918387  .00002497  00000+0  10777-2 0  9990",
        "tle_line2": "2 45527  98.7394  60.5340 0055630 205.2105 154.6356 14.24551916396823"
      },
      "geometry": {
        "type": "Point",
        "coordinates": [
          -121.77012256033275,
          -17.805009504912114
        ]
      }
    },
    {
      "type": "Feature",
      "properties": {
        "norad_id": 46440,
        "name": "FENGYUN 1C DEB",
        "group": "fengyun-1c-debris",
        "lat": 73.31558626755144,
        "lon": -9.041831612843689,
        "alt_km": 715.2290944259539,
        "timestamp": "2025-12-20T11:30:28.667658+00:00",
        "meta_object_name": "FENGYUN 1C DEB",
        "meta_object_id": "1999-025EYV",
        "meta_epoch": "2025-12-13T07:01:11.080704",
        "meta_mean_motion": 14.20320542,
        "meta_eccentricity": 0.01762461,
        "meta_inclination": 98.5934,
        "meta_ra_of_asc_node": 14.2712,
        "meta_arg_of_pericenter": 133.6484,
        "meta_mean_anomaly": 295.5393,
        "meta_ephemeris_type": 0,
        "meta_classification_type": "U",
        "meta_norad_cat_id": 46440,
        "meta_element_set_no": 999,
        "meta_rev_at_epoch": 62377,
        "meta_bstar": 0.00044388464,
        "meta_mean_motion_dot": 1.068e-05,
        "meta_mean_motion_ddot": 0,
        "tle_line1": "1 46440U 99025EYV 25347.29248936  .00001068  00000+0  44388-3 0  9991",
        "tle_line2": "2 46440  98.5934  14.2712 0176246 133.6484 295.5393 14.20320542623774"
      },
      "geometry": {
        "type": "Point",
        "coordinates": [
          -9.041831612843689,
          73.31558626755144
        ]
      }
    },
    {
      "type": "Feature",
      "properties": {
        "norad_id": 46443,
        "name": "FENGYUN 1C DEB",
        "group": "fengyun-1c-debris",
        "lat": 10.74813225330333,
        "lon": 59.793972415305944,
        "alt_km": 801.7149677593006,
        "timestamp": "2025-12-20T11:30:28.667668+00:00",
        "meta_object_name": "FENGYUN 1C DEB",
        "meta_object_id": "1999-025EYY",
        "meta_epoch": "2025-12-20T03:05:02.260032",
        "meta_mean_motion": 14.10879998,
        "meta_eccentricity": 0.0096642,
        "meta_inclination": 99.2142,
        "meta_ra_of_asc_node": 61.1998,
        "meta_arg_of_pericenter": 334.8957,
        "meta_mean_anomaly": 53.6355,
        "meta_ephemeris_type": 0,
        "meta_classification_type": "U",
        "meta_norad_cat_id": 46443,
        "meta_element_set_no": 999,
        "meta_rev_at_epoch": 59700,
        "meta_bstar": 0.0013066,
        "meta_mean_motion_dot": 2.4e-05,
        "meta_mean_motion_ddot": 0,
        "tle_line1": "1 46443U 99025EYY 25354.12849838  .00002400  00000+0  13066-2 0  9991",
        "tle_line2": "2 46443  99.2142  61.1998 0096642 334.8957  53.6355 14.10879998597004"
      },
      "geometry": {
        "type": "Point",
        "coordinates": [
          59.793972415305944,
          10.74813225330333
        ]
      }
    },
    {
      "type": "Feature",
      "properties": {
        "norad_id": 46444,
        "name": "FENGYUN 1C DEB",
        "group": "fengyun-1c-debris",
        "lat": 34.943412460228664,
        "lon": -177.72397879870206,
        "alt_km": 740.4330363392774,
        "timestamp": "2025-12-20T11:30:28.667678+00:00",
        "meta_object_name": "FENGYUN 1C DEB",
        "meta_object_id": "1999-025EYZ",
        "meta_epoch": "2025-12-18T06:45:06.153408",
        "meta_mean_motion": 14.27169033,
        "meta_eccentricity": 0.00846398,
        "meta_inclination": 98.5129,
        "meta_ra_of_asc_node": 354.1289,
        "meta_arg_of_pericenter": 134.7606,
        "meta_mean_anomaly": 242.101,
        "meta_ephemeris_type": 0,
        "meta_classification_type": "U",
        "meta_norad_cat_id": 46444,
        "meta_element_set_no": 999,
        "meta_rev_at_epoch": 62661,
        "meta_bstar": 0.00039999748,
        "meta_mean_motion_dot": 9.72e-06,
        "meta_mean_motion_ddot": 0,
        "tle_line1": "1 46444U 99025EYZ 25352.28132122  .00000972  00000+0  40000-3 0  9999",
        "tle_line2": "2 46444  98.5129 354.1289 0084639 134.7606 242.1010 14.27169033626614"
      },
      "geometry": {
        "type": "Point",
        "coordinates": [
          -177.72397879870206,
          34.943412460228664
        ]
      }
    },
    {
      "type": "Feature",
      "properties": {
        "norad_id": 46449,
        "name": "FENGYUN 1C DEB",
        "group": "fengyun-1c-debris",
        "lat": 71.218064570229,
        "lon": 2.1026395029370164,
        "alt_km": 967.2968507426849,
        "timestamp": "2025-12-20T11:30:28.667688+00:00",
        "meta_object_name": "FENGYUN 1C DEB",
        "meta_object_id": "1999-025EZE",
        "meta_epoch": "2025-11-27T19:57:02.428704",
        "meta_mean_motion": 14.19021773,
        "meta_eccentricity": 0.02029501,
        "meta_inclination": 98.6463,
        "meta_ra_of_asc_node": 6.5721,
        "meta_arg_of_pericenter": 314.0231,
        "meta_mean_anomaly": 44.4375,
        "meta_ephemeris_type": 0,
        "meta_classification_type": "U",
        "meta_norad_cat_id": 46449,
        "meta_element_set_no": 999,
        "meta_rev_at_epoch": 57425,
        "meta_bstar": 0.00050383916,
        "meta_mean_motion_dot": 1.244e-05,
        "meta_mean_motion_ddot": 0,
        "tle_line1": "1 46449U 99025EZE 25331.83127811  .00001244  00000+0  50384-3 0  9990",
        "tle_line2": "2 46449  98.6463   6.5721 0202950 314.0231  44.4375 14.19021773574253"
      },
      "geometry": {
        "type": "Point",
        "coordinates": [
          2.1026395029370164,
          71.218064570229
        ]
      }
    }
  ]
}